{"type": "FeatureCollection", "features": [ {"type": "Feature", "properties": {"norad_id": 41175, "name": "GSAT0208 (GALILEO 11)", "group": "galileo", "lat": -24.196853231320034, "lon": -55.67577516327773, "alt_km": 23230.372392778423, "timestamp": "2025-12-08T08:59:01.028585+00:00", "meta": {"OBJECT_NAME": "GSAT0208 (GALILEO 11)", "OBJECT_ID": "2015-079B", "EPOCH": "2025-12-07T10:42:17.817120", "MEAN_MOTION": 1.70474201, "ECCENTRICITY": 0.00018539, "INCLINATION": 55.7081, "RA_OF_ASC_NODE": 106.5234, "ARG_OF_PERICENTER": 5.1909, "MEAN_ANOMALY": 354.7678, "EPHEMERIS_TYPE": 0, "CLASSIFICATION_TYPE": "U", "NORAD_CAT_ID": 41175, "ELEMENT_SET_NO": 999, "REV_AT_EPOCH": 6192, "BSTAR": 0, "MEAN_MOTION_DOT": 8e-08, "MEAN_MOTION_DDOT": 0}, "tle": {"line1": "1 41175U 15079B   25341.44603955  .00000008  00000+0  00000+0 0  9997", "line2": "2 41175  55.7081 106.5234 0001853   5.1909 354.7678  1.70474201 61922"}}, "geometry": {"type": "Point", "coordinates": [-55.67577516327773, -24.196853231320034]}}, {"type": "Feature", "properties": {"norad_id": 41549, "name": "GSAT0211 (GALILEO 14)", "group": "galileo", "lat": 36.43409715209803, "lon": 16.03647519057299, "alt_km": 23223.640009324157, "timestamp": "2025-12-08T08:59:01.028609+00:00", "meta": {"OBJECT_NAME": "GSAT0211 (GALILEO 14)", "OBJECT_ID": "2016-030A", "EPOCH": "2025-12-07T13:40:58.264320", "MEAN_MOTION": 1.70472997, "ECCENTRICITY": 0.00040128, "INCLINATION": 55.154, "RA_OF_ASC_NODE": 226.9659, "ARG_OF_PERICENTER": 14.4678, "MEAN_ANOMALY": 345.6377, "EPHEMERIS_TYPE": 0, "CLASSIFICATION_TYPE": "U", "NORAD_CAT_ID": 41549, "ELEMENT_SET_NO": 999, "REV_AT_EPOCH": 5940, "BSTAR": 0, "MEAN_MOTION_DOT": 2.3e-07, "MEAN_MOTION_DDOT": 0}, "tle": {"line1": "1 41549U 16030A   25341.57011880  .00000023  00000+0  00000+0 0  9991", "line2": "2 41549  55.1540 226.9659 0004012  14.4678 345.6377  1.70472997 59400"}}, "geometry": {"type": "Point", "coordinates": [16.03647519057299, 36.43409715209803]}}, {"type": "Feature", "properties": {"norad_id": 41550, "name": "GSAT0210 (GALILEO 13)", "group": "galileo", "lat": -19.830604910738387, "lon": -147.5857765349337, "alt_km": 23225.060630123902, "timestamp": "2025-12-08T08:59:01.028625+00:00", "meta": {"OBJECT_NAME": "GSAT0210 (GALILEO 13)", "OBJECT_ID": "2016-030B", "EPOCH": "2025-12-04T07:23:32.472672", "MEAN_MOTION": 1.70473512, "ECCENTRICITY": 0.0001419, "INCLINATION": 55.1546, "RA_OF_ASC_NODE": 227.0538, "ARG_OF_PERICENTER": 244.2228, "MEAN_ANOMALY": 115.8568, "EPHEMERIS_TYPE": 0, "CLASSIFICATION_TYPE": "U", "NORAD_CAT_ID": 41550, "ELEMENT_SET_NO": 999, "REV_AT_EPOCH": 5934, "BSTAR": 0, "MEAN_MOTION_DOT": 4e-07, "MEAN_MOTION_DDOT": 0}, "tle": {"line1": "1 41550U 16030B   25338.30801473  .00000040  00000+0  00000+0 0  9994", "line2": "2 41550  55.1546 227.0538 0001419 244.2228 115.8568  1.70473512 59344"}}, "geometry": {"type": "Point", "coordinates": [-147.5857765349337, -19.830604910738387]}}, {"type": "Feature", "properties": {"norad_id": 41859, "name": "GSAT0207 (GALILEO 15)", "group": "galileo", "lat": 12.441852232976336, "lon": -82.3985359474201, "alt_km": 23226.816307606445, "timestamp": "2025-12-08T08:59:01.028637+00:00", "meta": {"OBJECT_NAME": "GSAT0207 (GALILEO 15)", "OBJECT_ID": "2016-069A", "EPOCH": "2025-12-06T22:22:57.829728", "MEAN_MOTION": 1.70474256, "ECCENTRICITY": 0.00021753, "INCLINATION": 55.3787, "RA_OF_ASC_NODE": 106.4111, "ARG_OF_PERICENTER": 324.2379, "MEAN_ANOMALY": 35.7022, "EPHEMERIS_TYPE": 0, "CLASSIFICATION_TYPE": "U", "NORAD_CAT_ID": 41859, "ELEMENT_SET_NO": 999, "REV_AT_EPOCH": 5612, "BSTAR": 0, "MEAN_MOTION_DOT": 7e-08, "MEAN_MOTION_DDOT": 0}, "tle": {"line1": "1 41859U 16069A   25340.93261377  .00000007  00000+0  00000+0 0  9996", "line2": "2 41859  55.3787 106.4111 0002175 324.2379  35.7022  1.70474256 56122"}}, "geometry": {"type": "Point", "coordinates": [-82.3985359474201, 12.441852232976336]}}, {"type": "Feature", "properties": {"norad_id": 41860, "name": "GSAT0212 (GALILEO 16)", "group": "galileo", "lat": -52.52227664351628, "lon": -9.459961405059763, "alt_km": 23232.730117419404, "timestamp": "2025-12-08T08:59:01.028649+00:00", "meta": {"OBJECT_NAME": "GSAT0212 (GALILEO 16)", "OBJECT_ID": "2016-069B", "EPOCH": "2025-12-06T04:47:33.838080", "MEAN_MOTION": 1.70474471, "ECCENTRICITY": 0.00022225, "INCLINATION": 55.376, "RA_OF_ASC_NODE": 106.4267, "ARG_OF_PERICENTER": 32.4045, "MEAN_ANOMALY": 327.5613, "EPHEMERIS_TYPE": 0, "CLASSIFICATION_TYPE": "U", "NORAD_CAT_ID": 41860, "ELEMENT_SET_NO": 999, "REV_AT_EPOCH": 5636, "BSTAR": 0, "MEAN_MOTION_DOT": 6e-08, "MEAN_MOTION_DDOT": 0}, "tle": {"line1": "1 41860U 16069B   25340.19969720  .00000006  00000+0  00000+0 0  9992", "line2": "2 41860  55.3760 106.4267 0002222  32.4045 327.5613  1.70474471 56361"}}, "geometry": {"type": "Point", "coordinates": [-9.459961405059763, -52.52227664351628]}}, {"type": "Feature", "properties": {"norad_id": 41861, "name": "GSAT0213 (GALILEO 17)", "group": "galileo", "lat": 23.53798146117091, "lon": 123.85772880427366, "alt_km": 23221.002224258522, "timestamp": "2025-12-08T08:59:01.028660+00:00", "meta": {"OBJECT_NAME": "GSAT0213 (GALILEO 17)", "OBJECT_ID": "2016-069C", "EPOCH": "2025-12-07T03:41:32.905248", "MEAN_MOTION": 1.70474767, "ECCENTRICITY": 0.00022126, "INCLINATION": 55.379, "RA_OF_ASC_NODE": 106.408, "ARG_OF_PERICENTER": 283.542, "MEAN_ANOMALY": 76.3889, "EPHEMERIS_TYPE": 0, "CLASSIFICATION_TYPE": "U", "NORAD_CAT_ID": 41861, "ELEMENT_SET_NO": 999, "REV_AT_EPOCH": 5624, "BSTAR": 0, "MEAN_MOTION_DOT": 7e-08, "MEAN_MOTION_DDOT": 0}, "tle": {"line1": "1 41861U 16069C   25341.15385307  .00000007  00000+0  00000+0 0  9994", "line2": "2 41861  55.3790 106.4080 0002212 283.5420  76.3889  1.70474767 56242"}}, "geometry": {"type": "Point", "coordinates": [123.85772880427366, 23.53798146117091]}}, {"type": "Feature", "properties": {"norad_id": 41862, "name": "GSAT0214 (GALILEO 18)", "group": "galileo", "lat": -45.79595891674203, "lon": 61.15090799925509, "alt_km": 23223.818627621804, "timestamp": "2025-12-08T08:59:01.028671+00:00", "meta": {"OBJECT_NAME": "GSAT0214 (GALILEO 18)", "OBJECT_ID": "2016-069D", "EPOCH": "2025-12-07T07:11:47.189472", "MEAN_MOTION": 1.70474588, "ECCENTRICITY": 0.00012146, "INCLINATION": 55.3773, "RA_OF_ASC_NODE": 106.3967, "ARG_OF_PERICENTER": 290.4025, "MEAN_ANOMALY": 69.5406, "EPHEMERIS_TYPE": 0, "CLASSIFICATION_TYPE": "U", "NORAD_CAT_ID": 41862, "ELEMENT_SET_NO": 999, "REV_AT_EPOCH": 5637, "BSTAR": 0, "MEAN_MOTION_DOT": 7e-08, "MEAN_MOTION_DDOT": 0}, "tle": {"line1": "1 41862U 16069D   25341.29985173  .00000007  00000+0  00000+0 0  9997", "line2": "2 41862  55.3773 106.3967 0001214 290.4025  69.5406  1.70474588 56370"}}, "geometry": {"type": "Point", "coordinates": [61.15090799925509, -45.79595891674203]}}, {"type": "Feature", "properties": {"norad_id": 43055, "name": "GSAT0215 (GALILEO 19)", "group": "galileo", "lat": -1.0836691264398162, "lon": -133.98699438781298, "alt_km": 23218.69633690832, "timestamp": "2025-12-08T08:59:01.028692+00:00", "meta": {"OBJECT_NAME": "GSAT0215 (GALILEO 19)", "OBJECT_ID": "2017-079A", "EPOCH": "2025-12-06T00:43:24.455424", "MEAN_MOTION": 1.70473755, "ECCENTRICITY": 0.00048437, "INCLINATION": 55.1369, "RA_OF_ASC_NODE": 226.8228, "ARG_OF_PERICENTER": 284.5496, "MEAN_ANOMALY": 75.4946, "EPHEMERIS_TYPE": 0, "CLASSIFICATION_TYPE": "U", "NORAD_CAT_ID": 43055, "ELEMENT_SET_NO": 999, "REV_AT_EPOCH": 4969, "BSTAR": 0, "MEAN_MOTION_DOT": 3.4e-07, "MEAN_MOTION_DDOT": 0}, "tle": {"line1": "1 43055U 17079A   25340.03014416  .00000034  00000+0  00000+0 0  9999", "line2": "2 43055  55.1369 226.8228 0004843 284.5496  75.4946  1.70473755 49697"}}, "geometry": {"type": "Point", "coordinates": [-133.98699438781298, -1.0836691264398162]}}, {"type": "Feature", "properties": {"norad_id": 43056, "name": "GSAT0216 (GALILEO 20)", "group": "galileo", "lat": 0.14384224597151204, "lon": 46.66751991686835, "alt_km": 23228.018201261086, "timestamp": "2025-12-08T08:59:01.028709+00:00", "meta": {"OBJECT_NAME": "GSAT0216 (GALILEO 20)", "OBJECT_ID": "2017-079B", "EPOCH": "2025-12-07T11:52:26.276448", "MEAN_MOTION": 1.7047388, "ECCENTRICITY": 0.00025242, "INCLINATION": 55.1322, "RA_OF_ASC_NODE": 226.7823, "ARG_OF_PERICENTER": 318.0138, "MEAN_ANOMALY": 42.0613, "EPHEMERIS_TYPE": 0, "CLASSIFICATION_TYPE": "U", "NORAD_CAT_ID": 43056, "ELEMENT_SET_NO": 999, "REV_AT_EPOCH": 4973, "BSTAR": 0, "MEAN_MOTION_DOT": 2.4e-07, "MEAN_MOTION_DDOT": 0}, "tle": {"line1": "1 43056U 17079B   25341.49474857  .00000024  00000+0  00000+0 0  9999", "line2": "2 43056  55.1322 226.7823 0002524 318.0138  42.0613  1.70473880 49732"}}, "geometry": {"type": "Point", "coordinates": [46.66751991686835, 0.14384224597151204]}}, {"type": "Feature", "properties": {"norad_id": 43057, "name": "GSAT0217 (GALILEO 21)", "group": "galileo", "lat": 35.02650756069117, "lon": -104.00696698622869, "alt_km": 23214.14127917809, "timestamp": "2025-12-08T08:59:01.028721+00:00", "meta": {"OBJECT_NAME": "GSAT0217 (GALILEO 21)", "OBJECT_ID": "2017-079C", "EPOCH": "2025-12-05T22:56:13.502976", "MEAN_MOTION": 1.70473847, "ECCENTRICITY": 0.00027948, "INCLINATION": 55.1308, "RA_OF_ASC_NODE": 226.8227, "ARG_OF_PERICENTER": 341.4584, "MEAN_ANOMALY": 18.6294, "EPHEMERIS_TYPE": 0, "CLASSIFICATION_TYPE": "U", "NORAD_CAT_ID": 43057, "ELEMENT_SET_NO": 999, "REV_AT_EPOCH": 4969, "BSTAR": 0, "MEAN_MOTION_DOT": 3.5e-07, "MEAN_MOTION_DDOT": 0}, "tle": {"line1": "1 43057U 17079C   25339.95571184  .00000035  00000+0  00000+0 0  9991", "line2": "2 43057  55.1308 226.8227 0002794 341.4584  18.6294  1.70473847 49692"}}, "geometry": {"type": "Point", "coordinates": [-104.00696698622869, 35.02650756069117]}}]}